{"type": "FeatureCollection", "features": [ {"type": "Feature", "properties": {"norad_id": 34784, "name": "COSMOS 2251 DEB", "group": "cosmos-2251-debris", "lat": -42.62449744504277, "lon": -44.40345588182102, "alt_km": 731.8489214327928, "timestamp": "2025-12-09T07:41:33.606819+00:00", "meta": {"OBJECT_NAME": "COSMOS 2251 DEB", "OBJECT_ID": "1993-036AAM", "EPOCH": "2025-12-08T17:06:22.289472", "MEAN_MOTION": 14.60752159, "ECCENTRICITY": 0.00495491, "INCLINATION": 74.0075, "RA_OF_ASC_NODE": 332.0636, "ARG_OF_PERICENTER": 142.5832, "MEAN_ANOMALY": 217.8802, "EPHEMERIS_TYPE": 0, "CLASSIFICATION_TYPE": "U", "NORAD_CAT_ID": 34784, "ELEMENT_SET_NO": 999, "REV_AT_EPOCH": 88476, "BSTAR": 0.00083539405, "MEAN_MOTION_DOT": 4.118e-05, "MEAN_MOTION_DDOT": 0}, "tle": {"line1": "1 34784U 93036AAM 25342.71275798  .00004118  00000+0  83539-3 0  9993", "line2": "2 34784  74.0075 332.0636 0049549 142.5832 217.8802 14.60752159884761"}}, "geometry": {"type": "Point", "coordinates": [-44.40345588182102, -42.62449744504277]}}, {"type": "Feature", "properties": {"norad_id": 34790, "name": "COSMOS 2251 DEB", "group": "cosmos-2251-debris", "lat": 14.00817321846456, "lon": 65.77266179158389, "alt_km": 870.8350789742326, "timestamp": "2025-12-09T07:41:33.606830+00:00", "meta": {"OBJECT_NAME": "COSMOS 2251 DEB", "OBJECT_ID": "1993-036AAT", "EPOCH": "2025-12-08T17:33:50.497344", "MEAN_MOTION": 14.24610531, "ECCENTRICITY": 0.01007347, "INCLINATION": 74.0552, "RA_OF_ASC_NODE": 250.922, "ARG_OF_PERICENTER": 313.4027, "MEAN_ANOMALY": 74.5698, "EPHEMERIS_TYPE": 0, "CLASSIFICATION_TYPE": "U", "NORAD_CAT_ID": 34790, "ELEMENT_SET_NO": 999, "REV_AT_EPOCH": 86516, "BSTAR": 0.0013775288, "MEAN_MOTION_DOT": 3.349e-05, "MEAN_MOTION_DDOT": 0}, "tle": {"line1": "1 34790U 93036AAT 25342.73183446  .00003349  00000+0  13775-2 0  9999", "line2": "2 34790  74.0552 250.9220 0100734 313.4027  74.5698 14.24610531865165"}}, "geometry": {"type": "Point", "coordinates": [65.77266179158389, 14.00817321846456]}}, {"type": "Feature", "properties": {"norad_id": 34792, "name": "COSMOS 2251 DEB", "group": "cosmos-2251-debris", "lat": 73.98596773389916, "lon": -96.85310126320265, "alt_km": 707.862367786016, "timestamp": "2025-12-09T07:41:33.606840+00:00", "meta": {"OBJECT_NAME": "COSMOS 2251 DEB", "OBJECT_ID": "1993-036AAV", "EPOCH": "2025-12-08T19:50:36.220704", "MEAN_MOTION": 14.55905085, "ECCENTRICITY": 0.00125331, "INCLINATION": 74.0175, "RA_OF_ASC_NODE": 177.135, "ARG_OF_PERICENTER": 270.9515, "MEAN_ANOMALY": 111.5468, "EPHEMERIS_TYPE": 0, "CLASSIFICATION_TYPE": "U", "NORAD_CAT_ID": 34792, "ELEMENT_SET_NO": 999, "REV_AT_EPOCH": 87593, "BSTAR": 0.0014836234, "MEAN_MOTION_DOT": 6.499e-05, "MEAN_MOTION_DDOT": 0}, "tle": {"line1": "1 34792U 93036AAV 25342.82680811  .00006499  00000+0  14836-2 0  9997", "line2": "2 34792  74.0175 177.1350 0012533 270.9515 111.5468 14.55905085875938"}}, "geometry": {"type": "Point", "coordinates": [-96.85310126320265, 73.98596773389916]}}, {"type": "Feature", "properties": {"norad_id": 34793, "name": "COSMOS 2251 DEB", "group": "cosmos-2251-debris", "lat": 71.5270013604617, "lon": -44.14290752137912, "alt_km": 724.3857409374004, "timestamp": "2025-12-09T07:41:33.606851+00:00", "meta": {"OBJECT_NAME": "COSMOS 2251 DEB", "OBJECT_ID": "1993-036AAW", "EPOCH": "2025-12-08T21:51:14.848992", "MEAN_MOTION": 14.38633848, "ECCENTRICITY": 0.00501355, "INCLINATION": 74.003, "RA_OF_ASC_NODE": 257.4407, "ARG_OF_PERICENTER": 52.5704, "MEAN_ANOMALY": 65.5685, "EPHEMERIS_TYPE": 0, "CLASSIFICATION_TYPE": "U", "NORAD_CAT_ID": 34793, "ELEMENT_SET_NO": 999, "REV_AT_EPOCH": 87275, "BSTAR": 0.00040645454, "MEAN_MOTION_DOT": 1.237e-05, "MEAN_MOTION_DDOT": 0}, "tle": {"line1": "1 34793U 93036AAW 25342.91058853  .00001237  00000+0  40645-3 0  9996", "line2": "2 34793  74.0030 257.4407 0050135  52.5704  65.5685 14.38633848872750"}}, "geometry": {"type": "Point", "coordinates": [-44.14290752137912, 71.5270013604617]}}, {"type": "Feature", "properties": {"norad_id": 34796, "name": "COSMOS 2251 DEB", "group": "cosmos-2251-debris", "lat": 49.36530684571751, "lon": -117.75062954082884, "alt_km": 720.3161372275481, "timestamp": "2025-12-09T07:41:33.606861+00:00", "meta": {"OBJECT_NAME": "COSMOS 2251 DEB", "OBJECT_ID": "1993-036AAZ", "EPOCH": "2025-12-07T17:35:44.416608", "MEAN_MOTION": 14.4865249, "ECCENTRICITY": 0.01001489, "INCLINATION": 74.0301, "RA_OF_ASC_NODE": 225.7308, "ARG_OF_PERICENTER": 328.8983, "MEAN_ANOMALY": 87.0781, "EPHEMERIS_TYPE": 0, "CLASSIFICATION_TYPE": "U", "NORAD_CAT_ID": 34796, "ELEMENT_SET_NO": 999, "REV_AT_EPOCH": 87955, "BSTAR": 0.001174251, "MEAN_MOTION_DOT": 4.684e-05, "MEAN_MOTION_DDOT": 0}, "tle": {"line1": "1 34796U 93036AAZ 25341.73315297  .00004684  00000+0  11743-2 0  9991", "line2": "2 34796  74.0301 225.7308 0100148 328.8983  87.0781 14.48652490879556"}}, "geometry": {"type": "Point", "coordinates": [-117.75062954082884, 49.36530684571751]}}, {"type": "Feature", "properties": {"norad_id": 34797, "name": "COSMOS 2251 DEB", "group": "cosmos-2251-debris", "lat": -62.3226703564925, "lon": -40.425979193195744, "alt_km": 710.4253113815485, "timestamp": "2025-12-09T07:41:33.606871+00:00", "meta": {"OBJECT_NAME": "COSMOS 2251 DEB", "OBJECT_ID": "1993-036ABA", "EPOCH": "2025-12-08T02:15:30.483648", "MEAN_MOTION": 14.42690241, "ECCENTRICITY": 0.00721111, "INCLINATION": 73.9779, "RA_OF_ASC_NODE": 108.638, "ARG_OF_PERICENTER": 222.8023, "MEAN_ANOMALY": 136.7506, "EPHEMERIS_TYPE": 0, "CLASSIFICATION_TYPE": "U", "NORAD_CAT_ID": 34797, "ELEMENT_SET_NO": 999, "REV_AT_EPOCH": 87348, "BSTAR": 0.0033221371, "MEAN_MOTION_DOT": 0.00011397, "MEAN_MOTION_DDOT": 0}, "tle": {"line1": "1 34797U 93036ABA 25342.09410282  .00011397  00000+0  33221-2 0  9996", "line2": "2 34797  73.9779 108.6380 0072111 222.8023 136.7506 14.42690241873482"}}, "geometry": {"type": "Point", "coordinates": [-40.425979193195744, -62.3226703564925]}}, {"type": "Feature", "properties": {"norad_id": 34814, "name": "COSMOS 2251 DEB", "group": "cosmos-2251-debris", "lat": -53.62318225863298, "lon": -51.311510340808795, "alt_km": 769.1200854362696, "timestamp": "2025-12-09T07:41:33.606882+00:00", "meta": {"OBJECT_NAME": "COSMOS 2251 DEB", "OBJECT_ID": "1993-036ABD", "EPOCH": "2025-12-08T05:18:03.614688", "MEAN_MOTION": 14.36862714, "ECCENTRICITY": 0.00565126, "INCLINATION": 73.8958, "RA_OF_ASC_NODE": 333.8174, "ARG_OF_PERICENTER": 224.1506, "MEAN_ANOMALY": 152.4116, "EPHEMERIS_TYPE": 0, "CLASSIFICATION_TYPE": "U", "NORAD_CAT_ID": 34814, "ELEMENT_SET_NO": 999, "REV_AT_EPOCH": 87268, "BSTAR": 0.001254214, "MEAN_MOTION_DOT": 3.751e-05, "MEAN_MOTION_DDOT": 0}, "tle": {"line1": "1 34814U 93036ABD 25342.22087517  .00003751  00000+0  12542-2 0  9990", "line2": "2 34814  73.8958 333.8174 0056512 224.1506 152.4116 14.36862714872683"}}, "geometry": {"type": "Point", "coordinates": [-51.311510340808795, -53.62318225863298]}}, {"type": "Feature", "properties": {"norad_id": 34815, "name": "COSMOS 2251 DEB", "group": "cosmos-2251-debris", "lat": -48.592594130401125, "lon": -130.41517150764022, "alt_km": 600.6444941264917, "timestamp": "2025-12-09T07:41:33.606892+00:00", "meta": {"OBJECT_NAME": "COSMOS 2251 DEB", "OBJECT_ID": "1993-036ABE", "EPOCH": "2025-12-08T04:18:34.462656", "MEAN_MOTION": 14.78216739, "ECCENTRICITY": 0.00589197, "INCLINATION": 74.0454, "RA_OF_ASC_NODE": 250.7536, "ARG_OF_PERICENTER": 320.8633, "MEAN_ANOMALY": 38.8287, "EPHEMERIS_TYPE": 0, "CLASSIFICATION_TYPE": "U", "NORAD_CAT_ID": 34815, "ELEMENT_SET_NO": 999, "REV_AT_EPOCH": 88560, "BSTAR": 0.0012864435, "MEAN_MOTION_DOT": 9.584e-05, "MEAN_MOTION_DDOT": 0}, "tle": {"line1": "1 34815U 93036ABE 25342.17956554  .00009584  00000+0  12864-2 0  9998", "line2": "2 34815  74.0454 250.7536 0058919 320.8633  38.8287 14.78216739885603"}}, "geometry": {"type": "Point", "coordinates": [-130.41517150764022, -48.592594130401125]}}, {"type": "Feature", "properties": {"norad_id": 34816, "name": "COSMOS 2251 DEB", "group": "cosmos-2251-debris", "lat": -56.42819693523036, "lon": 122.88120341565656, "alt_km": 1019.688292490031, "timestamp": "2025-12-09T07:41:33.606902+00:00", "meta": {"OBJECT_NAME": "COSMOS 2251 DEB", "OBJECT_ID": "1993-036ABF", "EPOCH": "2025-12-06T22:26:27.336768", "MEAN_MOTION": 13.5829822, "ECCENTRICITY": 0.03736298, "INCLINATION": 73.886, "RA_OF_ASC_NODE": 152.5929, "ARG_OF_PERICENTER": 218.068, "MEAN_ANOMALY": 297.1187, "EPHEMERIS_TYPE": 0, "CLASSIFICATION_TYPE": "U", "NORAD_CAT_ID": 34816, "ELEMENT_SET_NO": 999, "REV_AT_EPOCH": 82704, "BSTAR": 0.0017880706, "MEAN_MOTION_DOT": 2.026e-05, "MEAN_MOTION_DDOT": 0}, "tle": {"line1": "1 34816U 93036ABF 25340.93503862  .00002026  00000+0  17881-2 0  9999", "line2": "2 34816  73.8860 152.5929 0373629 218.0680 297.1187 13.58298220827040"}}, "geometry": {"type": "Point", "coordinates": [122.88120341565656, -56.42819693523036]}}, {"type": "Feature", "properties": {"norad_id": 34818, "name": "COSMOS 2251 DEB", "group": "cosmos-2251-debris", "lat": 12.511982291179146, "lon": -53.131338306239655, "alt_km": 752.3782909435058, "timestamp": "2025-12-09T07:41:33.606913+00:00", "meta": {"OBJECT_NAME": "COSMOS 2251 DEB", "OBJECT_ID": "1993-036ABH", "EPOCH": "2025-12-08T15:45:47.779200", "MEAN_MOTION": 14.36959493, "ECCENTRICITY": 0.0023979, "INCLINATION": 74.0355, "RA_OF_ASC_NODE": 304.4464, "ARG_OF_PERICENTER": 21.1656, "MEAN_ANOMALY": 159.8945, "EPHEMERIS_TYPE": 0, "CLASSIFICATION_TYPE": "U", "NORAD_CAT_ID": 34818, "ELEMENT_SET_NO": 999, "REV_AT_EPOCH": 87311, "BSTAR": 0.00045428, "MEAN_MOTION_DOT": 1.324e-05, "MEAN_MOTION_DDOT": 0}, "tle": {"line1": "1 34818U 93036ABH 25342.65680300  .00001324  00000+0  45428-3 0  9994", "line2": "2 34818  74.0355 304.4464 0023979  21.1656 159.8945 14.36959493873110"}}, "geometry": {"type": "Point", "coordinates": [-53.131338306239655, 12.511982291179146]}}]}